{
"type": "FeatureCollection",
"name": "serra_gaucha",
"crs": { "type": "name", "properties": { "name": "urn:ogc:def:crs:EPSG::4674" } },
"features": [
{ "type": "Feature", "properties": { "code_muni": 4300802.0, "name_muni": "Antônio Prado", "code_state": 43.0, "abbrev_state": "RS", "name_state": "Rio Grande do Sul", "code_region": 4.0, "name_region": "Sul", "year": 2020.0, "name_muni_clean": "antônio prado" }, "geometry": { "type": "Polygon", "coordinates": [ [ [ -51.610878977, -29.401090098 ], [ -51.657530402, -29.399303453 ], [ -51.665800952, -29.414318989 ], [ -51.669457577, -29.418293124 ], [ -51.680334305, -29.413407519 ], [ -51.691229481, -29.423525458 ], [ -51.691079891, -29.371372707 ], [ -51.727454108, -29.369405356 ], [ -51.728957489, -29.334062587 ], [ -51.701888531, -29.334449899 ], [ -51.701783754, -29.324201722 ], [ -51.700687875, -29.323020427 ], [ -51.711013911, -29.32439359 ], [ -51.714685016, -29.323646622999988 ], [ -51.716697326, -29.320907952 ], [ -51.720418449, -29.323922256 ], [ -51.723395837, -29.322462492 ], [ -51.726771572, -29.32495039 ], [ -51.729037937, -29.324859082 ], [ -51.728929481, -29.31618533 ], [ -51.723713159, -29.313831177 ], [ -51.709079854, -29.312612495 ], [ -51.708853509, -29.308366475 ], [ -51.703480546, -29.305044837 ], [ -51.699453781, -29.305655536 ], [ -51.700925966, -29.304325449 ], [ -51.698912395, -29.303492685 ], [ -51.706140393, -29.304373582 ], [ -51.70975757, -29.301630979 ], [ -51.71155131, -29.304197619 ], [ -51.713232463, -29.303783608 ], [ -51.715306389, -29.296967067 ], [ -51.713213925, -29.294548675 ], [ -51.725370091, -29.294647899 ], [ -51.72509878, -29.299083854 ], [ -51.726543861, -29.301557794 ], [ -51.734949301, -29.297373577 ], [ -51.7386024, -29.299911858 ], [ -51.736605386, -29.304943601 ], [ -51.737054256, -29.307276107999989 ], [ -51.741153916, -29.306853083 ], [ -51.743471988, -29.30921175 ], [ -51.749241966, -29.305630517 ], [ -51.752770897, -29.306722511 ], [ -51.750764964, -29.30087376 ], [ -51.754767508, -29.300310691 ], [ -51.76158397, -29.295291807 ], [ -51.77692921, -29.299147182 ], [ -51.797001762, -29.299414663 ], [ -51.80148377, -29.259773766 ], [ -51.775601901, -29.260212484 ], [ -51.775053747, -29.252688309 ], [ -51.771576541, -29.25474164 ], [ -51.768212191, -29.2549561 ], [ -51.768189645, -29.258173491 ], [ -51.765197401, -29.260388047 ], [ -51.754784655, -29.260561759 ], [ -51.754275171, -29.224484202 ], [ -51.752796532, -29.224596465 ], [ -51.751950023, -29.221672014 ], [ -51.755978205, -29.22177117 ], [ -51.755518766, -29.21868819 ], [ -51.750369771, -29.217728778 ], [ -51.74751094, -29.218915321 ], [ -51.746854939, -29.215519682 ], [ -51.749954993, -29.211669561 ], [ -51.748945843, -29.210546041 ], [ -51.750003258, -29.20809638 ], [ -51.752549509, -29.19916131 ], [ -51.754241245, -29.198268006 ], [ -51.756922547, -29.192640344 ], [ -51.758011636, -29.18517146 ], [ -51.7542856, -29.186608815 ], [ -51.740051913, -29.186403708 ], [ -51.735808063, -29.183733848 ], [ -51.73351107, -29.180497089 ], [ -51.733796467, -29.177758524 ], [ -51.73842155, -29.172036939 ], [ -51.746831613, -29.165045935 ], [ -51.756392426, -29.138878661 ], [ -51.753394984, -29.136811038 ], [ -51.739347418, -29.137854678 ], [ -51.73912896, -29.13675345 ], [ -51.737164923, -29.136006976 ], [ -51.732128118, -29.12898147 ], [ -51.739004936, -29.118833517 ], [ -51.742164555, -29.118703415 ], [ -51.746978328, -29.114744598 ], [ -51.752216062, -29.114374886 ], [ -51.758511397, -29.103653449 ], [ -51.808399415, -29.081724146 ], [ -51.803597079, -29.065448026 ], [ -51.809037283, -29.064301316 ], [ -51.805329037, -29.045702714 ], [ -51.814099103, -29.014511614 ], [ -51.794809901, -29.008873748 ], [ -51.792821657, -28.998676065 ], [ -51.779674375, -29.000763957 ], [ -51.779875976, -29.008089594999987 ], [ -51.760600444, -29.008092844 ], [ -51.760016125, -28.996492316 ], [ -51.759534778, -28.991112774 ], [ -51.750564086, -28.981304987 ], [ -51.749787501, -28.979299779 ], [ -51.751284533, -28.975423329 ], [ -51.75878785, -28.972683265 ], [ -51.768638922, -28.971459882 ], [ -51.772369409, -28.97302601 ], [ -51.777494727, -28.970027238 ], [ -51.778323376, -28.965775943 ], [ -51.77288922, -28.961213733 ], [ -51.756666377, -28.963518288 ], [ -51.754070722, -28.960838838 ], [ -51.755262038, -28.957794154 ], [ -51.757057344, -28.957093562 ], [ -51.767351944, -28.959278574 ], [ -51.769845864, -28.954465118 ], [ -51.767608704, -28.943294385 ], [ -51.773771317, -28.940944199 ], [ -51.779138601, -28.940565646 ], [ -51.780913182, -28.937494232 ], [ -51.78147965600656, -28.936286919292741 ], [ -51.842429681, -28.936662051 ], [ -51.842780568, -28.919424202 ], [ -51.85609187, -28.919259684 ], [ -51.856009786, -28.933065668 ], [ -51.859314684, -28.929083103 ], [ -51.870076333, -28.928808159 ], [ -51.869988848, -28.932634484 ], [ -51.889620371, -28.932479031 ], [ -51.889708018, -28.946374416 ], [ -51.913683636, -28.946120315 ], [ -51.913631832, -28.947892041 ], [ -51.920855811, -28.945837798 ], [ -51.92343425, -28.941807455 ], [ -51.919587027, -28.934362606 ], [ -51.913250762, -28.932168482 ], [ -51.913860434999989, -28.927517274 ], [ -51.916310661, -28.924157014 ], [ -51.91956981, -28.920939037 ], [ -51.923685635, -28.922071932 ], [ -51.930525475, -28.927977597 ], [ -51.932953226, -28.928165959000012 ], [ -51.942956109, -28.924703831 ], [ -51.945169209, -28.922772744 ], [ -51.943994577, -28.908132243 ], [ -51.945912145, -28.907088779 ], [ -51.952684739, -28.907917594 ], [ -51.951153805, -28.92621096 ], [ -51.953939776, -28.929215528 ], [ -51.959274841, -28.929274557 ], [ -51.965253581, -28.925383445 ], [ -51.95721637, -28.917315584 ], [ -51.956716963, -28.915451456 ], [ -51.960044584, -28.909163171 ], [ -51.967049468, -28.905718761 ], [ -51.968555131, -28.907028524 ], [ -51.967520334, -28.916415187999984 ], [ -51.968659781, -28.922334134 ], [ -51.97025485, -28.922920688 ], [ -51.976989146, -28.913920566 ], [ -51.980478694, -28.911238656 ], [ -51.981391022, -28.904175861 ], [ -51.980213562, -28.900764828 ], [ -51.992826036, -28.902929521 ], [ -52.000347888, -28.902537765 ], [ -52.0027839, -28.903693625 ], [ -52.004457327, -28.900819762 ], [ -52.003555076, -28.898770038 ], [ -51.989453726, -28.891284122 ], [ -51.988762638, -28.889641087000012 ], [ -51.993893826, -28.887472383 ], [ -52.00194209, -28.886910027 ], [ -52.008862272, -28.883507403 ], [ -52.010205055, -28.88105135 ], [ -52.009847046, -28.877028740000011 ], [ -52.006696865, -28.865628349 ], [ -52.015020663, -28.865631145 ], [ -52.023423265, -28.863202886 ], [ -52.032746425, -28.854925625 ], [ -52.026309501, -28.850961267 ], [ -52.010319211, -28.836256207 ], [ -52.01695928, -28.841914553 ], [ -52.02773843, -28.838026289 ], [ -52.03451427200001, -28.834064464 ], [ -52.035570805, -28.835593355 ], [ -52.030758149, -28.842076934 ], [ -52.031166874, -28.843719973 ], [ -52.036065381, -28.845980438 ], [ -52.039087694, -28.845933294 ], [ -52.04342458, -28.844318579 ], [ -52.045847179, -28.841425877 ], [ -52.051850957, -28.828601791 ], [ -52.054617483, -28.827128171 ], [ -52.061624572, -28.826738293 ], [ -52.066810984, -28.821619054 ], [ -52.066785968, -28.819257306 ], [ -52.060838986, -28.81870209 ], [ -52.059339511, -28.817288789 ], [ -52.061254914, -28.814889975 ], [ -52.065577418, -28.81318679 ], [ -52.060968629, -28.805786669 ], [ -52.059794511, -28.795282452 ], [ -52.062234032, -28.794706825 ], [ -52.065127005, -28.796977098 ], [ -52.066660984, -28.796566109 ], [ -52.071139514, -28.788623194 ], [ -52.074751156, -28.78523272 ], [ -52.074408325, -28.782317115 ], [ -52.068358159, -28.773633011 ], [ -52.068692179, -28.770957074 ], [ -52.074406806, -28.764277287 ], [ -52.078599409, -28.762771989 ], [ -52.079485157, -28.760036202 ], [ -52.071187129, -28.754135398 ], [ -52.068521357, -28.747363978 ], [ -52.072333363, -28.742910211 ], [ -52.079757961, -28.740652606 ], [ -52.078751507, -28.736511683 ], [ -52.07963718700001, -28.733820977 ], [ -52.085074753, -28.730837584 ], [ -52.076672903, -28.729145308 ], [ -52.079695442, -28.722459345 ], [ -52.085437188, -28.71786114 ], [ -52.085470456, -28.714852241 ], [ -52.081630255, -28.711988856 ], [ -52.080999876, -28.710157224 ], [ -52.082168637, -28.70956795 ], [ -52.090056336, -28.711550629 ], [ -52.095261903, -28.708728673 ], [ -52.097972813, -28.704021615 ], [ -52.097419737, -28.70193953 ], [ -52.086762981, -28.699105381 ], [ -52.08205077, -28.700482313 ], [ -52.078876486, -28.699724406 ], [ -52.077167787, -28.687154376 ], [ -52.07914566, -28.686048479999986 ], [ -52.084686731, -28.690721308 ], [ -52.089810837, -28.69164518 ], [ -52.090560921, -28.685771144 ], [ -52.086969805, -28.684866344 ], [ -52.084450941, -28.676838794 ], [ -52.084913993, -28.674112178 ], [ -52.088676821999989, -28.672456143 ], [ -52.092936143, -28.676425370000011 ], [ -52.098283394, -28.673799785 ], [ -52.100595684, -28.667632633 ], [ -52.101195169, -28.657185039 ], [ -52.102835506, -28.655636291 ], [ -52.110345151, -28.655810737 ], [ -52.110902345, -28.652643606 ], [ -52.105884193, -28.64968265 ], [ -52.101695087, -28.63964145 ], [ -52.102466999, -28.637222447 ], [ -52.099629747, -28.635207196 ], [ -52.100162945, -28.629935526 ], [ -52.092565062, -28.633290586 ], [ -52.088246604, -28.63026361 ], [ -52.091649024, -28.62882321 ], [ -52.092983877, -28.615920809 ], [ -52.066505711, -28.614439746 ], [ -51.99646985, -28.610489414 ], [ -51.995193442, -28.648377337 ], [ -51.994108763, -28.648662549 ], [ -51.997248489, -28.652959123 ], [ -51.992488434, -28.657678206 ], [ -51.992734135, -28.661535104 ], [ -51.994801439, -28.661664031 ], [ -51.9943679, -28.672501211 ], [ -51.848153709, -28.663472248 ], [ -51.850500505, -28.661833703 ], [ -51.856809525, -28.661967014 ], [ -51.860474368, -28.658090676 ], [ -51.853715415, -28.6545429 ], [ -51.849316356, -28.648923545 ], [ -51.845839126, -28.649574539 ], [ -51.842304563, -28.652673279 ], [ -51.839585037, -28.65196317 ], [ -51.838644955, -28.650799962 ], [ -51.840908387, -28.64758262 ], [ -51.852820111, -28.643610781 ], [ -51.852542277, -28.63787174 ], [ -51.863132479, -28.635459804 ], [ -51.856580625, -28.629332224 ], [ -51.85810737, -28.624860311 ], [ -51.854962882, -28.615260588 ], [ -51.84869613, -28.610938265 ], [ -51.848376962, -28.608680482 ], [ -51.850551376, -28.606642805 ], [ -51.856261202, -28.605883986 ], [ -51.862202148, -28.611682999 ], [ -51.866700838, -28.613757881 ], [ -51.867439027, -28.610869085 ], [ -51.865312106, -28.599660912 ], [ -51.869278363, -28.598480028 ], [ -51.871559875, -28.594200703 ], [ -51.869735467, -28.59285868 ], [ -51.865191193, -28.593040875 ], [ -51.859141597, -28.597387512 ], [ -51.857602968, -28.597304253 ], [ -51.853980596, -28.590586728 ], [ -51.844366037, -28.589190325 ], [ -51.842816103, -28.584881409 ], [ -51.837572196, -28.58567739 ], [ -51.837116249, -28.580970328 ], [ -51.840389267, -28.579040865 ], [ -51.840528746, -28.577684819 ], [ -51.836964783, -28.577188288 ], [ -51.832916826, -28.573576055 ], [ -51.828263306, -28.579391567 ], [ -51.826772281, -28.578678128 ], [ -51.826496203, -28.572850597 ], [ -51.82864158, -28.565385161 ], [ -51.823731295, -28.563001517 ], [ -51.821560264, -28.567745003 ], [ -51.819927609, -28.567939427 ], [ -51.816750712, -28.564004903 ], [ -51.808591437, -28.558317374 ], [ -51.814154181, -28.551672552 ], [ -51.808656783, -28.544835167 ], [ -51.802933862, -28.543960737 ], [ -51.802848341, -28.542603913 ], [ -51.805948651, -28.54032593 ], [ -51.798931788, -28.531747847 ], [ -51.797367377, -28.532108286 ], [ -51.786373428, -28.531273013 ], [ -51.789738745, -28.526515421 ], [ -51.79555602, -28.523275978 ], [ -51.794114275, -28.520776784 ], [ -51.791683106, -28.519660774 ], [ -51.788532276, -28.522269362 ], [ -51.785989569, -28.522005919 ], [ -51.787392533, -28.515685159 ], [ -51.782351424, -28.513179557 ], [ -51.780191787, -28.50652282 ], [ -51.778371181, -28.504767369 ], [ -51.779898446, -28.503518533 ], [ -51.783218644, -28.503872252 ], [ -51.78816045, -28.500612575 ], [ -51.790343028, -28.487964401 ], [ -51.783225341, -28.487371098 ], [ -51.777381068, -28.49366475 ], [ -51.773850437, -28.493368603 ], [ -51.774009132, -28.48584075 ], [ -51.775702675, -28.48451881 ], [ -51.780947136, -28.485495226 ], [ -51.776042285, -28.478891141 ], [ -51.775856462, -28.475434673 ], [ -51.781195557, -28.478507984 ], [ -51.784744984, -28.474510985 ], [ -51.780405981, -28.469720865 ], [ -51.774828099, -28.467470304 ], [ -51.771418582, -28.469255641 ], [ -51.771328577, -28.475054458 ], [ -51.761254951, -28.473460197 ], [ -51.763338569, -28.46892853 ], [ -51.770675296, -28.467306512 ], [ -51.776416283, -28.461352588 ], [ -51.772721998, -28.460759981 ], [ -51.769417625, -28.457773734 ], [ -51.761829677, -28.458075683 ], [ -51.762285914, -28.454709549 ], [ -51.764121731, -28.452775642 ], [ -51.763370074, -28.449560968 ], [ -51.75615876, -28.449283252 ], [ -51.753966987, -28.450299791 ], [ -51.751352018, -28.448815798 ], [ -51.747217086, -28.451648976 ], [ -51.744764635, -28.4497207 ], [ -51.742694034, -28.450684214 ], [ -51.738153409, -28.449708839 ], [ -51.72344429, -28.452792303 ], [ -51.719973738, -28.455236068 ], [ -51.716745057, -28.45427421 ], [ -51.711937937, -28.454964135 ], [ -51.708431097, -28.458619317 ], [ -51.70172191, -28.459673447 ], [ -51.697692496, -28.463396744999987 ], [ -51.690070747, -28.463453022 ], [ -51.687121857, -28.466701341 ], [ -51.678036306, -28.463915207 ], [ -51.672237308, -28.465692593 ], [ -51.65680413, -28.464889707 ], [ -51.654538319, -28.465880661 ], [ -51.654207322, -28.469060757 ], [ -51.651455862, -28.470538012 ], [ -51.641682002, -28.465613298 ], [ -51.634508874, -28.466379122 ], [ -51.63289975, -28.468600143 ], [ -51.633169684, -28.471265303 ], [ -51.621978322, -28.476139921 ], [ -51.617870551, -28.48279683 ], [ -51.618516442, -28.486550987 ], [ -51.616853427, -28.488989594 ], [ -51.618805297, -28.495403874 ], [ -51.614901908, -28.497538008 ], [ -51.615562634, -28.501288784 ], [ -51.613482925, -28.503201402 ], [ -51.616956531, -28.50593636 ], [ -51.618183412, -28.513106833 ], [ -51.622120407, -28.513014619 ], [ -51.622902291, -28.515203953 ], [ -51.623727085359867, -28.514043303515578 ], [ -51.624286788, -28.515852793 ], [ -51.62062999, -28.517197103 ], [ -51.619685675, -28.520170991 ], [ -51.616510079, -28.521057067 ], [ -51.614917712, -28.523954261 ], [ -51.609460482, -28.524947619 ], [ -51.609558884, -28.527507223 ], [ -51.613186608, -28.527962624 ], [ -51.614943783, -28.531084175 ], [ -51.611425113, -28.535133656 ], [ -51.608857378, -28.536648818 ], [ -51.602867329, -28.535767029 ], [ -51.601018021, -28.537939167 ], [ -51.599134511, -28.536532085 ], [ -51.596155671, -28.537879562 ], [ -51.597459098, -28.541469375 ], [ -51.604453701, -28.543769916 ], [ -51.603163349, -28.549087771 ], [ -51.607030548, -28.547239129 ], [ -51.609519522, -28.549748084 ], [ -51.610941802, -28.547788736 ], [ -51.612110836, -28.548131401 ], [ -51.612177598, -28.552452564 ], [ -51.607372443, -28.556936242 ], [ -51.608326056, -28.562622916 ], [ -51.605427099, -28.564391976 ], [ -51.60429343, -28.57018054 ], [ -51.601348918, -28.572089722 ], [ -51.603854339, -28.577135835 ], [ -51.60351072400001, -28.582776266 ], [ -51.598500302, -28.58475513 ], [ -51.601978763, -28.586082222 ], [ -51.605310438, -28.589688767 ], [ -51.605071293, -28.592965961 ], [ -51.608496599, -28.594753178 ], [ -51.612034684, -28.592605389 ], [ -51.61454549, -28.595543045 ], [ -51.611398527, -28.601009595 ], [ -51.611038073, -28.605184632 ], [ -51.605122135, -28.605040788 ], [ -51.601760126, -28.610656823 ], [ -51.608653702, -28.616918328 ], [ -51.609409461, -28.620322518 ], [ -51.61267246, -28.622812951 ], [ -51.612520604, -28.626005022 ], [ -51.615248363, -28.62879438 ], [ -51.614437789, -28.630136206 ], [ -51.611769402, -28.629790367 ], [ -51.611814155, -28.631910137 ], [ -51.615781484, -28.63553263 ], [ -51.614532079, -28.638983345 ], [ -51.612240399, -28.639175887 ], [ -51.608805957, -28.636733163 ], [ -51.606226564, -28.637870635 ], [ -51.611383767, -28.642566626 ], [ -51.610123987, -28.643900153 ], [ -51.607093354, -28.642900366 ], [ -51.604842392, -28.64357554 ], [ -51.606807584, -28.647083927 ], [ -51.606202511, -28.64920784 ], [ -51.608985818, -28.651594097 ], [ -51.606048781, -28.653893279 ], [ -51.602312613, -28.654118143 ], [ -51.598951806, -28.659159565 ], [ -51.592026919, -28.662274329 ], [ -51.592658307, -28.664168076 ], [ -51.594827134, -28.664786411 ], [ -51.59594751, -28.669119202 ], [ -51.596816009, -28.67289947 ], [ -51.599161046, -28.674956602 ], [ -51.607473974, -28.673070204 ], [ -51.610645173, -28.675281147 ], [ -51.609783229, -28.678868252 ], [ -51.604605893, -28.675623486 ], [ -51.594215126, -28.684205948 ], [ -51.590081894, -28.683453976999989 ], [ -51.59061378, -28.687050747 ], [ -51.589040413, -28.68918767 ], [ -51.584997398, -28.687144241 ], [ -51.580753472, -28.689401341 ], [ -51.577124716, -28.687767868 ], [ -51.573416631, -28.693070309 ], [ -51.569884297, -28.693075327 ], [ -51.56596394, -28.694909027 ], [ -51.561533503782492, -28.6928871782168 ], [ -51.561689948, -28.692875717 ], [ -51.559101304, -28.691398062 ], [ -51.559146905, -28.686828436 ], [ -51.560531357, -28.686051131 ], [ -51.557858935, -28.684605681 ], [ -51.556455013, -28.680769525 ], [ -51.550495064, -28.680787481 ], [ -51.547791101, -28.678288925 ], [ -51.546728269, -28.679461307 ], [ -51.544228502, -28.678289067 ], [ -51.542828784, -28.673315469 ], [ -51.538150394, -28.671874477 ], [ -51.53153303, -28.667216157 ], [ -51.522964601, -28.670482891 ], [ -51.511303259, -28.666880518 ], [ -51.509374768, -28.668161730000012 ], [ -51.50395832000001, -28.668329758 ], [ -51.496738684, -28.666814844 ], [ -51.494198657, -28.664813153999987 ], [ -51.493850534, -28.66010093 ], [ -51.489747338, -28.653282412 ], [ -51.483380468, -28.653574176 ], [ -51.483233961, -28.652385966 ], [ -51.479804012, -28.650920005 ], [ -51.479747307, -28.649088605 ], [ -51.473005898, -28.649446495 ], [ -51.472099227, -28.650230318 ], [ -51.473066165, -28.652560804 ], [ -51.469336462, -28.654858934 ], [ -51.467511027, -28.648910784 ], [ -51.465726928, -28.650125712 ], [ -51.46457807, -28.653988783 ], [ -51.462032273, -28.65378672 ], [ -51.460804924, -28.65721356800001 ], [ -51.462291944, -28.658825037 ], [ -51.458818741, -28.661843782 ], [ -51.450948298, -28.661774848 ], [ -51.447787475, -28.66359694 ], [ -51.447563043, -28.66594184 ], [ -51.444454118, -28.667454967 ], [ -51.446449703, -28.670988228 ], [ -51.445090633, -28.673660814 ], [ -51.445485582, -28.677344082 ], [ -51.452301714, -28.681438048 ], [ -51.451906939, -28.683198021 ], [ -51.44787993, -28.685037808 ], [ -51.438169742, -28.686636929 ], [ -51.434339548, -28.688713583 ], [ -51.436083028, -28.696875037 ], [ -51.432761682, -28.70399449 ], [ -51.432176032, -28.709046225 ], [ -51.439496991, -28.713467566 ], [ -51.44036618, -28.715967879 ], [ -51.431859938, -28.733882215 ], [ -51.425576413, -28.738799361 ], [ -51.423378972, -28.742662924 ], [ -51.424666915, -28.744469524 ], [ -51.431863177, -28.74504446 ], [ -51.43504023, -28.747618945999989 ], [ -51.43575763, -28.752142192 ], [ -51.43091026, -28.767211167 ], [ -51.431414208, -28.771470106 ], [ -51.454436668, -28.785573916 ], [ -51.460172986, -28.790786227 ], [ -51.459385144, -28.79303183 ], [ -51.456856859, -28.793880271 ], [ -51.448521468, -28.794369076 ], [ -51.435859868, -28.792522518 ], [ -51.432795122, -28.798389494 ], [ -51.433927607, -28.803397262 ], [ -51.437718915, -28.805829702 ], [ -51.436038271, -28.809177105999986 ], [ -51.416803356, -28.801068746999984 ], [ -51.413626539, -28.801163982 ], [ -51.411741599, -28.799858353999987 ], [ -51.40978484, -28.802932343 ], [ -51.407235842, -28.801819346 ], [ -51.40178696, -28.804625241 ], [ -51.401474202, -28.807189352 ], [ -51.39315969, -28.813060531 ], [ -51.392354382, -28.814849589 ], [ -51.386167714, -28.814639848 ], [ -51.387473644, -28.816868404 ], [ -51.383635735, -28.820779401 ], [ -51.38125823, -28.821286189 ], [ -51.380298215, -28.824707301 ], [ -51.37668996, -28.825655104 ], [ -51.372824483, -28.830513371 ], [ -51.364945193, -28.833553608 ], [ -51.364538676, -28.834678262 ], [ -51.351644958, -28.834169845 ], [ -51.348301791, -28.835967153 ], [ -51.345095794, -28.834411108999987 ], [ -51.344718556, -28.832115704 ], [ -51.341091364, -28.828591565 ], [ -51.336659999, -28.828157637 ], [ -51.333935965, -28.832435394 ], [ -51.334184085, -28.835243612 ], [ -51.329521344, -28.842766389 ], [ -51.320380208, -28.849772717 ], [ -51.316658258, -28.848063241 ], [ -51.317505829, -28.839796467 ], [ -51.310759661, -28.837306242 ], [ -51.304929841, -28.837801854 ], [ -51.302075168, -28.834562074 ], [ -51.302092494999989, -28.83199341 ], [ -51.298963451, -28.832559521 ], [ -51.29509739, -28.829651902 ], [ -51.286019355, -28.828291214 ], [ -51.274654618, -28.828866575 ], [ -51.272904702, -28.830246178 ], [ -51.27245837, -28.827748147000012 ], [ -51.268620602, -28.824465375 ], [ -51.265284914, -28.824592573 ], [ -51.262798427, -28.821982023 ], [ -51.256030105, -28.821867473 ], [ -51.251813047, -28.81643148 ], [ -51.251543932, -28.818813322 ], [ -51.248480718, -28.817527213 ], [ -51.247042992, -28.819023144 ], [ -51.238893299, -28.819121344 ], [ -51.234652319, -28.81708101 ], [ -51.231050194, -28.818685767 ], [ -51.226407977, -28.823337981 ], [ -51.221675829, -28.823909482 ], [ -51.216375642, -28.831440993 ], [ -51.213927787, -28.830752145 ], [ -51.210720001, -28.832554668 ], [ -51.211059118, -28.835771662 ], [ -51.204474019, -28.840184494 ], [ -51.20758856, -28.842185046 ], [ -51.205020238, -28.843411872 ], [ -51.205669213, -28.844546229 ], [ -51.203928282, -28.846558502 ], [ -51.195141531, -28.848786239 ], [ -51.192817165, -28.850902506 ], [ -51.192561735, -28.85363309 ], [ -51.188204444, -28.851748939 ], [ -51.182622265, -28.853089355 ], [ -51.176829264, -28.856792533 ], [ -51.176852952, -28.858972325 ], [ -51.172438689, -28.864029464 ], [ -51.166466788, -28.866747556 ], [ -51.163196777, -28.872914628 ], [ -51.160255505, -28.873940663 ], [ -51.151300266, -28.873389942 ], [ -51.144950762, -28.883693795 ], [ -51.124509644, -28.876891805 ], [ -51.114759863, -28.873629092 ], [ -51.108647357, -28.868483877 ], [ -51.108885298, -28.864694079 ], [ -51.114997988, -28.857170318 ], [ -51.114448824, -28.853837793 ], [ -51.108173578, -28.847134574 ], [ -51.095613773, -28.84107739 ], [ -51.091317761, -28.841280936 ], [ -51.088236605, -28.843467667 ], [ -51.085137593, -28.853593942 ], [ -51.074248672, -28.861599737 ], [ -51.061459232, -28.864981503 ], [ -51.047776628, -28.862142177 ], [ -51.046807, -28.860221951 ], [ -51.0473204, -28.845355098 ], [ -51.041972003, -28.835255077 ], [ -51.037070679, -28.832750945 ], [ -51.032408402, -28.832872343 ], [ -51.023220246, -28.839921868 ], [ -51.018977242, -28.841824524 ], [ -51.016996808, -28.841255888 ], [ -51.010996861, -28.831700334 ], [ -50.999667429, -28.818993443 ], [ -50.993638656, -28.815984126 ], [ -50.977536799, -28.815174586 ], [ -50.962885258, -28.794481801 ], [ -50.931449004, -28.807524592000011 ], [ -50.914189614, -28.801769989 ], [ -50.902556785, -28.806118899 ], [ -50.89067117, -28.80631924 ], [ -50.886885542, -28.810151086 ], [ -50.885289542, -28.814089203 ], [ -50.88383345, -28.841246971 ], [ -50.879139941, -28.840859093 ], [ -50.859682789, -28.834181124 ], [ -50.851538274, -28.833903355000011 ], [ -50.841462862, -28.829834367 ], [ -50.837763017, -28.836428073 ], [ -50.830209809, -28.835052529 ], [ -50.820071315, -28.83671055 ], [ -50.817627268, -28.842390809 ], [ -50.819494078, -28.848510136 ], [ -50.827535482, -28.85579929 ], [ -50.821017001, -28.867362454 ], [ -50.817375495, -28.868737998 ], [ -50.804695469, -28.868183021 ], [ -50.799951685, -28.872180695 ], [ -50.794403454, -28.874485038 ], [ -50.800742316, -28.87880971 ], [ -50.797982017, -28.883955717 ], [ -50.79934835, -28.886494946 ], [ -50.806081759, -28.884542166 ], [ -50.810232953, -28.884698757 ], [ -50.820276265, -28.89363672 ], [ -50.81909953, -28.896852975 ], [ -50.815098786, -28.899579499 ], [ -50.813314877, -28.899002262 ], [ -50.810741874, -28.895210305 ], [ -50.807415085, -28.895153503 ], [ -50.805838429, -28.896661074 ], [ -50.810012651, -28.899628625 ], [ -50.812005348, -28.903445145 ], [ -50.807322972, -28.906263782 ], [ -50.805560557, -28.909149967 ], [ -50.806549229, -28.912484432 ], [ -50.809981947, -28.915260083 ], [ -50.808649389, -28.920977187 ], [ -50.810596029, -28.929955066 ], [ -50.802981412, -28.933700966 ], [ -50.793524549, -28.934787891 ], [ -50.789729523, -28.93739774 ], [ -50.786981505999989, -28.94137085 ], [ -50.791255516, -28.94556503 ], [ -50.79734414, -28.9440636 ], [ -50.799376751, -28.945023103 ], [ -50.802738082, -28.953457519 ], [ -50.80713798, -28.951386528 ], [ -50.816125838, -28.952126497 ], [ -50.815865237, -28.956996933999985 ], [ -50.811486832, -28.956619274 ], [ -50.810332358, -28.959020335 ], [ -50.818679268, -28.967387202 ], [ -50.816837022, -28.969085139 ], [ -50.813054276, -28.969435166 ], [ -50.803529864, -28.964009751 ], [ -50.800520863, -28.963819386 ], [ -50.795030969, -28.966840669 ], [ -50.791794757, -28.971470847 ], [ -50.791407885, -28.979183718 ], [ -50.783771776, -28.979165294999987 ], [ -50.782696852, -29.000075802 ], [ -50.786660291, -29.003043519 ], [ -50.786975431, -29.005134361 ], [ -50.785034532, -29.006671893 ], [ -50.786638012, -29.009664342 ], [ -50.790010888, -29.012751295000012 ], [ -50.794918921, -29.010192722 ], [ -50.795661517, -29.015303783 ], [ -50.79367363, -29.016764592 ], [ -50.799234937, -29.025380892 ], [ -50.800752734, -29.026245469 ], [ -50.806268716, -29.024932396 ], [ -50.809945767, -29.031683457 ], [ -50.81513619, -29.028470983 ], [ -50.815931208, -29.03070567 ], [ -50.813860613, -29.034488852 ], [ -50.81696498, -29.03399534 ], [ -50.816931064, -29.038042225 ], [ -50.81943363, -29.038152835000012 ], [ -50.81856676, -29.044536032 ], [ -50.821950279, -29.047368746 ], [ -50.822894517, -29.054293158 ], [ -50.830999227, -29.062476554 ], [ -50.829740243, -29.063735538 ], [ -50.830448421, -29.064679776 ], [ -50.839460818, -29.060532174 ], [ -50.848293622, -29.062916039 ], [ -50.852263858, -29.066080157999988 ], [ -50.85752302, -29.066830235 ], [ -50.858316641, -29.068118377 ], [ -50.862984788, -29.066069381 ], [ -50.868640542, -29.068985629 ], [ -50.875451587, -29.067364773 ], [ -50.892591281, -29.066687979 ], [ -50.900225687, -29.069675355 ], [ -50.904637778, -29.073684388 ], [ -50.908463064, -29.075027737 ], [ -50.914521338, -29.073898311 ], [ -50.931328023, -29.074460869 ], [ -50.936841521, -29.072646027 ], [ -50.937738165, -29.069576746 ], [ -50.944231289, -29.07132046 ], [ -50.940954551, -29.079917249 ], [ -50.937461564, -29.08077754 ], [ -50.935343633, -29.078848622 ], [ -50.931487588, -29.078611833 ], [ -50.928568054, -29.080710597 ], [ -50.921796131, -29.079195158 ], [ -50.914654733, -29.080360166 ], [ -50.908966173, -29.083546997 ], [ -50.902470621, -29.090337281 ], [ -50.902640023, -29.098917378 ], [ -50.904684191, -29.101998145 ], [ -50.906358425, -29.102403655 ], [ -50.907855856, -29.105971227 ], [ -50.91090955100001, -29.10777877 ], [ -50.913010571, -29.112375303 ], [ -50.913024403, -29.117071669 ], [ -50.91481509, -29.118370474 ], [ -50.914341789, -29.119335445 ], [ -50.91343448, -29.117998751 ], [ -50.903830044, -29.116002856 ], [ -50.899777903, -29.119257501 ], [ -50.894002525, -29.116845615 ], [ -50.890558205, -29.118370017 ], [ -50.882372019, -29.118126458 ], [ -50.880412766, -29.119710673 ], [ -50.875226888, -29.116274974 ], [ -50.872740641, -29.117533725 ], [ -50.871228093, -29.120733946 ], [ -50.867224448, -29.12103139 ], [ -50.866153218, -29.123449742 ], [ -50.861831114, -29.123158225 ], [ -50.855507187, -29.119539319 ], [ -50.847992389, -29.121481485 ], [ -50.846390733, -29.12663056500001 ], [ -50.840872924, -29.128172103 ], [ -50.841000565, -29.133715931 ], [ -50.837873909, -29.141442433 ], [ -50.841707924, -29.150821846 ], [ -50.84141479, -29.153278995 ], [ -50.844936704, -29.159038208 ], [ -50.84136263, -29.160084005 ], [ -50.83978513, -29.167452024 ], [ -50.843309463, -29.168546468 ], [ -50.840211853, -29.170141703999988 ], [ -50.83861717, -29.17512806 ], [ -50.834955755, -29.177378857 ], [ -50.836517273, -29.181874371 ], [ -50.834634608, -29.182291144 ], [ -50.835994372, -29.186048737 ], [ -50.838876409, -29.186438979 ], [ -50.839126252, -29.189215994 ], [ -50.840667319, -29.19049174 ], [ -50.839062133, -29.194469328 ], [ -50.844408329, -29.198475658 ], [ -50.848368229, -29.205345232 ], [ -50.848291949, -29.209884413 ], [ -50.850553801, -29.210056871 ], [ -50.854949267, -29.213688436999988 ], [ -50.854199739, -29.219743259 ], [ -50.856199587, -29.223371508 ], [ -50.854395412, -29.225401205 ], [ -50.859654274, -29.225442109 ], [ -50.86024461, -29.227485072 ], [ -50.858102152, -29.228962019 ], [ -50.856302399, -29.233985409 ], [ -50.861237349, -29.237023322 ], [ -50.861378853, -29.239760539 ], [ -50.858305564, -29.243196432 ], [ -50.859267349, -29.247589687 ], [ -50.862244174702234, -29.248545550951373 ], [ -50.858935699, -29.247722347 ], [ -50.855389256, -29.251175928 ], [ -50.855455586, -29.260753976 ], [ -50.853253431, -29.264158914 ], [ -50.849255945, -29.266924874 ], [ -50.844599581, -29.266995626 ], [ -50.843982712, -29.260201226 ], [ -50.841448907, -29.258153841 ], [ -50.835034798, -29.259283661 ], [ -50.827428961, -29.25779787 ], [ -50.826794405, -29.260815884 ], [ -50.82824482, -29.264335794 ], [ -50.826874001, -29.265978567 ], [ -50.82523565, -29.265403707 ], [ -50.822942844, -29.26060805 ], [ -50.816239095, -29.257413156 ], [ -50.810234021, -29.263597321 ], [ -50.80259723, -29.267325065 ], [ -50.801425401, -29.272936581 ], [ -50.796791147, -29.276863315 ], [ -50.782048916, -29.279022911 ], [ -50.776720364, -29.275337661 ], [ -50.761775613, -29.276832579 ], [ -50.758028352, -29.282274081 ], [ -50.756882247999989, -29.289517235 ], [ -50.760075836, -29.291353216 ], [ -50.759508875, -29.295789247 ], [ -50.762990372, -29.302256151 ], [ -50.761362573, -29.309380266 ], [ -50.753531417, -29.316270177 ], [ -50.745690849, -29.319709041999989 ], [ -50.742985602, -29.32695884 ], [ -50.72365685, -29.328318254 ], [ -50.711451145, -29.334367972 ], [ -50.696559054, -29.330122747 ], [ -50.698803297, -29.325588848 ], [ -50.697464483, -29.32531576 ], [ -50.69881047, -29.324508666 ], [ -50.696893549, -29.32308528 ], [ -50.691924551, -29.322739855 ], [ -50.687135466, -29.325142792 ], [ -50.683140159, -29.331352792 ], [ -50.674553493, -29.335982174 ], [ -50.673129745, -29.338280352 ], [ -50.676068739, -29.348057118 ], [ -50.67503152, -29.352818617 ], [ -50.682369999, -29.359606211 ], [ -50.683113583, -29.361968712 ], [ -50.681905085, -29.364476577000012 ], [ -50.677421821, -29.366119047 ], [ -50.675720937, -29.374402 ], [ -50.674445273000011, -29.374729775 ], [ -50.668288426, -29.370415552 ], [ -50.659682128, -29.373480688 ], [ -50.652506521, -29.373657863 ], [ -50.649276616, -29.375677933 ], [ -50.64464879, -29.382242014 ], [ -50.644581729, -29.385121848 ], [ -50.647674061, -29.388837371 ], [ -50.643882506, -29.393408498 ], [ -50.644550146, -29.405968659 ], [ -50.647027289, -29.411240686 ], [ -50.649683687, -29.412035722 ], [ -50.657030528999989, -29.422073659 ], [ -50.65973224, -29.420937087 ], [ -50.66171439, -29.418079226 ], [ -50.671439001, -29.419871762999986 ], [ -50.673889844, -29.415886683 ], [ -50.678184253, -29.415855647 ], [ -50.680542709, -29.414563256 ], [ -50.685281291, -29.40569961 ], [ -50.688189755, -29.403558627 ], [ -50.691695528, -29.402587676 ], [ -50.701103461, -29.404833464 ], [ -50.721796816, -29.404084297 ], [ -50.725169696, -29.408153181 ], [ -50.733773764, -29.409786565 ], [ -50.735047413, -29.414760213 ], [ -50.74504125, -29.41322699 ], [ -50.754806528, -29.415292388 ], [ -50.75601577, -29.416698972 ], [ -50.763899166, -29.412993176 ], [ -50.767387791, -29.415842959999985 ], [ -50.772222121, -29.414344109000012 ], [ -50.771026247, -29.417694689 ], [ -50.768161666, -29.418605682 ], [ -50.768661668, -29.421007001 ], [ -50.770577626, -29.420288638 ], [ -50.771128659, -29.421107304 ], [ -50.769281408, -29.426625294 ], [ -50.771558535, -29.424764214 ], [ -50.772541615, -29.425897705 ], [ -50.767420967, -29.433952789 ], [ -50.768734755, -29.437113988 ], [ -50.767311579, -29.438614007 ], [ -50.770123099, -29.439268026 ], [ -50.770611613, -29.44094311 ], [ -50.779519115, -29.441596354 ], [ -50.809148371, -29.432712696 ], [ -50.78846327, -29.438961442 ], [ -50.834635823, -29.475828657 ], [ -50.836551342, -29.474118003 ], [ -50.845436949, -29.474431741 ], [ -50.846405622, -29.473394547 ], [ -50.85475297, -29.477805411 ], [ -50.868347464, -29.476351462 ], [ -50.875167178, -29.480518652 ], [ -50.875580543, -29.48230180700001 ], [ -50.883534178, -29.488395161 ], [ -50.883699291, -29.489786095 ], [ -50.88797018, -29.491583587 ], [ -50.891227257, -29.495900823 ], [ -50.893143159, -29.495258442000011 ], [ -50.897036767, -29.498612103 ], [ -50.905056273, -29.499079908 ], [ -50.90899404, -29.501550359 ], [ -50.910302447, -29.501646494 ], [ -50.909732248, -29.450948802 ], [ -50.916348053, -29.44318683 ], [ -50.91625209, -29.440843167 ], [ -50.920033472, -29.438591971 ], [ -50.928428786, -29.438296816 ], [ -50.929714415, -29.435336664 ], [ -50.93492571, -29.431904002 ], [ -50.935403631, -29.427652241 ], [ -50.939931533, -29.424547262 ], [ -50.943987984, -29.425068907 ], [ -50.946351205, -29.42367648 ], [ -50.947574657, -29.425526626 ], [ -50.956780321, -29.425372496 ], [ -50.981324468, -29.390400725 ], [ -50.984923552, -29.39076788900001 ], [ -50.992382016, -29.387423846 ], [ -50.994340803, -29.395835127 ], [ -50.993173761, -29.402079897 ], [ -51.002690686, -29.414891253 ], [ -51.004219944, -29.424335239 ], [ -51.00753668, -29.425037793 ], [ -51.009479652, -29.427624256 ], [ -51.012011456, -29.426323405 ], [ -51.019639878, -29.436973877 ], [ -51.042499901, -29.439440963 ], [ -51.008402081, -29.445899913 ], [ -51.012456399, -29.476040169 ], [ -51.077551618, -29.465167972 ], [ -51.063704737, -29.467512802 ], [ -51.061218235, -29.469568275 ], [ -51.062088058, -29.472840465 ], [ -51.059984337, -29.473778656 ], [ -51.059597673, -29.475693276 ], [ -51.062481549, -29.479985435 ], [ -51.06112504, -29.481186619 ], [ -51.062019598, -29.482798907 ], [ -51.054155404, -29.488805071 ], [ -51.054658138, -29.491511031 ], [ -51.051264105, -29.492162036 ], [ -51.049669788, -29.496105628 ], [ -51.047961583, -29.496185066 ], [ -51.046244862, -29.49392330600001 ], [ -51.042176668, -29.493657496 ], [ -51.043174595, -29.491368202 ], [ -51.037488732, -29.491544624 ], [ -51.031550912, -29.493963307 ], [ -51.032083764, -29.497246136 ], [ -51.028879477, -29.497765022 ], [ -51.026399447, -29.50179054 ], [ -51.032990423, -29.514154446 ], [ -51.032728959, -29.517826598 ], [ -51.017362095, -29.519897604 ], [ -51.016856276, -29.51488763 ], [ -50.968643256, -29.519494971 ], [ -50.968006422, -29.524993492 ], [ -50.963135063, -29.523827148 ], [ -50.963964077, -29.52915039 ], [ -50.962074077, -29.530452622 ], [ -50.94653006, -29.533106377 ], [ -50.947813263, -29.540867987 ], [ -50.939954681, -29.542353591 ], [ -50.945505879, -29.549100764 ], [ -50.947125723, -29.553244882 ], [ -50.951731684, -29.55431774 ], [ -50.958540943, -29.550551275 ], [ -50.962229587, -29.550575151 ], [ -50.962051023, -29.548903429 ], [ -50.968067904, -29.544979644 ], [ -50.973362935, -29.546816059 ], [ -50.976012891, -29.545814292 ], [ -50.980386482, -29.546471241 ], [ -50.981934822, -29.545412546 ], [ -50.984882407, -29.547639844 ], [ -50.993163165, -29.542714961 ], [ -50.995372763, -29.544504832 ], [ -51.002683046, -29.541653723 ], [ -51.005047436, -29.544195952 ], [ -51.008683284999989, -29.542986223 ], [ -51.011699561, -29.544542917 ], [ -51.010772093999989, -29.546132651 ], [ -51.014016778, -29.548016212 ], [ -51.043784321, -29.544914829 ], [ -51.046466009, -29.562053915 ], [ -51.117646475, -29.550950107 ], [ -51.110982342982631, -29.502822340914058 ], [ -51.112468989, -29.510743128 ], [ -51.146433224, -29.505839037 ], [ -51.144379369, -29.497531935 ], [ -51.151355627, -29.497098982 ], [ -51.164214586999989, -29.498930596 ], [ -51.174664779, -29.492160914 ], [ -51.176543801, -29.492286430999989 ], [ -51.177808517, -29.494106938 ], [ -51.179939171, -29.490064127 ], [ -51.177494172, -29.487254011000012 ], [ -51.17426542, -29.486855539 ], [ -51.173663858, -29.485489469 ], [ -51.168998862, -29.439435782 ], [ -51.168590578, -29.435426696 ], [ -51.176038366, -29.43053841 ], [ -51.178866277, -29.429115145 ], [ -51.185218464, -29.429079022 ], [ -51.185048412, -29.426798864 ], [ -51.18157777, -29.422761157 ], [ -51.191834497, -29.416535557 ], [ -51.191622366, -29.412969712 ], [ -51.189180553, -29.410277437 ], [ -51.20683418, -29.407746048 ], [ -51.214321245, -29.403536983 ], [ -51.225240431, -29.3943597 ], [ -51.22629463, -29.389881584 ], [ -51.223841726, -29.38997212 ], [ -51.221063134, -29.386692751 ], [ -51.223965551, -29.377903665 ], [ -51.223580081, -29.374911246 ], [ -51.216517833, -29.375496256 ], [ -51.207694201, -29.373080403 ], [ -51.20765972, -29.368910566 ], [ -51.212298503, -29.358571187 ], [ -51.21330694, -29.357212749 ], [ -51.219344269, -29.355442501 ], [ -51.219979811, -29.351614783 ], [ -51.22754907, -29.344153346 ], [ -51.232093996, -29.344818364 ], [ -51.233075871, -29.342750518 ], [ -51.235049418, -29.343280984 ], [ -51.237467628, -29.341647668 ], [ -51.216522893, -29.336652311 ], [ -51.25065618, -29.30766084 ], [ -51.262744741, -29.295137951 ], [ -51.266702395, -29.295089996 ], [ -51.278426137, -29.294942387 ], [ -51.279811495, -29.29957447 ], [ -51.276909025, -29.304194987 ], [ -51.271915232, -29.304437579 ], [ -51.268258625, -29.307239173 ], [ -51.259880831, -29.308847525 ], [ -51.258405659, -29.311492472 ], [ -51.263771313, -29.313148784 ], [ -51.269859442, -29.31281527 ], [ -51.28283499, -29.318579881 ], [ -51.298716133, -29.317580067 ], [ -51.304308666, -29.322976798 ], [ -51.309448064, -29.323180488 ], [ -51.336453662, -29.332969288 ], [ -51.354344352776792, -29.333133587508183 ], [ -51.354481502, -29.35168475 ], [ -51.533921907, -29.351530055 ], [ -51.397205039, -29.351821905 ], [ -51.401061909, -29.418378496 ], [ -51.403505734, -29.433476637 ], [ -51.43569351, -29.431352418 ], [ -51.446460066, -29.433361537 ], [ -51.445794047, -29.430979586 ], [ -51.450228869, -29.430062267 ], [ -51.452982706, -29.431285521 ], [ -51.454982356, -29.434403718 ], [ -51.460175825, -29.434700311 ], [ -51.461772273, -29.433845241 ], [ -51.46135912, -29.430168917 ], [ -51.462921037, -29.432141369 ], [ -51.465989263, -29.432338673 ], [ -51.468816755, -29.435401032 ], [ -51.473183916, -29.437342829 ], [ -51.480069967, -29.435878264 ], [ -51.483949184, -29.436557993 ], [ -51.487204568, -29.434712478 ], [ -51.497454736, -29.432436912 ], [ -51.500406746, -29.429794454 ], [ -51.503606972999989, -29.430161819 ], [ -51.50809996200001, -29.427051943 ], [ -51.51010655, -29.431543171 ], [ -51.513196651, -29.431803169 ], [ -51.513968482, -29.427723976 ], [ -51.516863395, -29.426442233 ], [ -51.519546786, -29.428189341 ], [ -51.52619152, -29.427598274 ], [ -51.531231162, -29.43095354 ], [ -51.539610654, -29.431128499999986 ], [ -51.542940954, -29.429928444 ], [ -51.547413819, -29.431399868 ], [ -51.552657341, -29.429908692 ], [ -51.560543215, -29.431410237 ], [ -51.567309897, -29.429732426 ], [ -51.570134605, -29.427584496 ], [ -51.572276323, -29.428461365 ], [ -51.573698275, -29.419639808 ], [ -51.583119622, -29.416924241 ], [ -51.584842492999989, -29.418636152 ], [ -51.585114992, -29.416447314 ], [ -51.583236274, -29.415157363 ], [ -51.583555742, -29.407099751 ], [ -51.578836986, -29.40611841 ], [ -51.607971285, -29.411588688 ], [ -51.614068538, -29.383785346 ], [ -51.610878977, -29.401090098 ] ] ] } }
]
}
